NORAD_CAT_ID,OBJECT_NAME,OBJECT_TYPE,EPOCH,MEAN_MOTION,ECCENTRICITY,INCLINATION,RA_OF_ASC_NODE,ARG_OF_PERICENTER,MEAN_ANOMALY,BSTAR,MEAN_MOTION_DOT,MEAN_MOTION_DDOT,TLE_LINE0,TLE_LINE1,TLE_LINE2,SEMIMAJOR_AXIS,PERIOD,APOGEE,PERIGEE,DECAYED
54202.0,STARLINK-5205,PAYLOAD,2022-12-04 22:00:00,15.73240591,0.0003348999999999,53.214,316.4419,10.0675,74.4189,5.0537e-05,6.488e-05,0.0,0 STARLINK-5205,1 54202U 22141AX  22338.91667824  .00006488  00000-0  50537-4 0  9994,2 54202  53.2140 316.4419 0003349  10.0675  74.4189 15.73240591  6226,6727.779,91.531,351.898,347.391,0.0
54202.0,STARLINK-5205,PAYLOAD,2022-12-05 14:00:01,15.73267885,0.0003573,53.2141,313.1435,8.3423,254.1623,-0.00073252,-0.00102525,0.0,0 STARLINK-5205,1 54202U 22141AX  22339.58335648 -.00102525  00000-0 -73252-3 0  9993,2 54202  53.2141 313.1435 0003573   8.3423 254.1623 15.73267885  1308,6727.7019999999975,91.529,351.97,347.163,0.0
54202.0,STARLINK-5205,PAYLOAD,2022-12-05 15:56:18,15.73250006,0.0003627,53.2151,312.744,6.1939,353.9125,0.00010032,0.00013512,0.0,0 STARLINK-5205,1 54202U 22141AX  22339.66410413  .00013512  00000-0  10032-3 0  9998,2 54202  53.2151 312.7440 0003627   6.1939 353.9125 15.73250006  6114,6727.753000000002,91.53,352.05800000000005,347.177,0.0
54202.0,STARLINK-5205,PAYLOAD,2022-12-06 07:11:06,15.732335699999998,0.0003498,53.2147,309.5994,16.7693,343.3442,3.062e-05,3.683e-05,0.0,0 STARLINK-5205,1 54202U 22141AX  22340.29937697  .00003683  00000-0  30620-4 0  9991,2 54202  53.2147 309.5994 0003498  16.7693 343.3442 15.73233570  6445,6727.799,91.531,352.01800000000014,347.311,0.0
54202.0,STARLINK-5205,PAYLOAD,2022-12-06 14:48:31,15.7318635,0.0003243,53.2148,308.0293,7.183,352.9236,-0.00010053,-0.00014703,0.0,0 STARLINK-5205,1 54202U 22141AX  22340.61702563 -.00014703  00000-0 -10053-3 0  9993,2 54202  53.2148 308.0293 0003243   7.1830 352.9236 15.73186350  6492,6727.934,91.534,351.981,347.617,0.0
54202.0,STARLINK-5205,PAYLOAD,2022-12-07 09:06:17,15.73208427,0.0003602,53.2143,304.2532,8.7565,351.3517,0.00015268,0.00020872,0.0,0 STARLINK-5205,1 54202U 22141AX  22341.37937084  .00020872  00000-0  15268-3 0  9990,2 54202  53.2143 304.2532 0003602   8.7565 351.3517 15.73208427  6611,6727.871,91.533,352.16,347.31300000000016,0.0
54202.0,STARLINK-5205,PAYLOAD,2022-12-08 06:27:00,15.73227735,0.0002938,53.2143,299.8493,10.022,350.0858,6.611e-05,8.678e-05,0.0,0 STARLINK-5205,1 54202U 22141AX  22342.26875326  .00008678  00000-0  66110-4 0  9992,2 54202  53.2143 299.8493 0002938  10.0220 350.0858 15.73227735  6528,6727.816,91.532,351.658,347.704,0.0
54202.0,STARLINK-5205,PAYLOAD,2022-12-08 14:04:24,15.73241178,0.0003697,53.2145,298.2794,16.5718,343.5422,9.3869e-05,0.00012597,0.0,0 STARLINK-5205,1 54202U 22141AX  22342.58638992  .00012597  00000-0  93869-4 0  9999,2 54202  53.2145 298.2794 0003697  16.5718 343.5422 15.73241178  6579,6727.778,91.531,352.13,347.156,0.0
54202.0,STARLINK-5205,PAYLOAD,2022-12-09 06:50:39,15.73250316,0.0003421,53.2156,294.8249,1.9316,358.1717,3.2193e-05,3.907e-05,0.0,0 STARLINK-5205,1 54202U 22141AX  22343.28517385  .00003907  00000-0  32193-4 0  9997,2 54202  53.2156 294.8249 0003421   1.9316 358.1717 15.73250316  6680,6727.752,91.53,351.918,347.315,0.0
54202.0,STARLINK-5205,PAYLOAD,2022-12-10 01:08:28,15.73135928,0.0004662,53.2149,291.0536,358.9937,1.1073,-7.3138e-05,-0.00010855,0.0,0 STARLINK-5205,1 54202U 22141AX  22344.04755169 -.00010855  00000-0 -73138-4 0  9992,2 54202  53.2149 291.0536 0004662 358.9937   1.1073 15.73135928  6807,6728.078,91.537,353.079,346.806,0.0
54202.0,STARLINK-5205,PAYLOAD,2022-12-11 10:41:02,15.73210976,0.000298,53.2143,284.1367,5.5043,354.6009,5.6729e-05,7.351e-05,0.0,0 STARLINK-5205,1 54202U 22141AX  22345.44516865  .00007351  00000-0  56729-4 0  9997,2 54202  53.2143 284.1367 0002980   5.5043 354.6009 15.73210976  7252,6727.864000000001,91.533,351.7340000000001,347.724,0.0
54202.0,STARLINK-5205,PAYLOAD,2022-12-12 09:33:13,15.73236259,0.0003731,53.2145,279.4187,11.4637,348.6467,7.2139e-05,9.531e-05,0.0,0 STARLINK-5205,1 54202U 22141AX  22346.39807288  .00009531  00000-0  72139-4 0  9999,2 54202  53.2145 279.4187 0003731  11.4637 348.6467 15.73236259  7401,6727.792,91.531,352.167,347.147,0.0
54202.0,STARLINK-5205,PAYLOAD,2022-12-12 20:13:35,15.73216491,0.0002885,53.2147,277.2183,18.7091,341.4034,-2.5932e-05,-4.264e-05,0.0,0 STARLINK-5205,1 54202U 22141AX  22346.84277154 -.00004264  00000-0 -25932-4 0  9991,2 54202  53.2147 277.2183 0002885  18.7091 341.4034 15.73216491  7247,6727.848000000001,91.532,351.654,347.772,0.0
54202.0,STARLINK-5205,PAYLOAD,2022-12-13 02:19:31,15.73205719,0.0002911,53.2144,275.9606,17.1393,342.9725,-3.5211e-05,-5.563e-05,0.0,0 STARLINK-5205,1 54202U 22141AX  22347.09688782 -.00005563  00000-0 -35211-4 0  9996,2 54202  53.2144 275.9606 0002911  17.1393 342.9725 15.73205719  7511,6727.879,91.533,351.702,347.785,0.0
54202.0,STARLINK-5205,PAYLOAD,2022-12-13 05:22:28,15.73209799,0.0003101,53.2137,275.3316,14.8863,345.2248,-1.7287e-05,-3.05e-05,0.0,0 STARLINK-5205,1 54202U 22141AX  22347.22394245 -.00003050  00000-0 -17287-4 0  9991,2 54202  53.2137 275.3316 0003101  14.8863 345.2248 15.73209799  7308,6727.8669999999975,91.533,351.819,347.646,0.0
54202.0,STARLINK-5205,PAYLOAD,2022-12-14 01:11:42,15.7320261,0.0003008,53.2135,271.2434,15.8087,344.3026,-2.6197e-05,-4.299e-05,0.0,0 STARLINK-5205,1 54202U 22141AX  22348.04980230 -.00004299  00000-0 -26197-4 0  9993,2 54202  53.2135 271.2434 0003008  15.8087 344.3026 15.73202610  7665,6727.888000000001,91.533,351.776,347.72900000000016,0.0
54202.0,STARLINK-5205,PAYLOAD,2022-12-14 11:52:04,15.73204589,0.0003347,53.2138,269.0436,13.9709,346.1403,-1.703e-07,-6.48e-06,0.0,0 STARLINK-5205,1 54202U 22141AX  22348.49450126 -.00000648  00000-0 -17030-6 0  9990,2 54202  53.2138 269.0436 0003347  13.9709 346.1403 15.73204589  7500,6727.882,91.533,351.999,347.495,0.0
54202.0,STARLINK-5205,PAYLOAD,2022-12-14 17:58:00,15.73206346,0.0003159,53.2133,267.7867,10.9142,349.1946,2.6653e-05,3.121e-05,0.0,0 STARLINK-5205,1 54202U 22141AX  22348.74861430  .00003121  00000-0  26653-4 0  9998,2 54202  53.2133 267.7867 0003159  10.9142 349.1946 15.73206346  7549,6727.877,91.533,351.867,347.617,0.0
54202.0,STARLINK-5205,PAYLOAD,2022-12-15 01:35:24,15.73203492,0.0003174,53.2139,266.2149,19.2636,340.8504,1.513e-05,1.501e-05,0.0,0 STARLINK-5205,1 54202U 22141AX  22349.06625425  .00001501  00000-0  15130-4 0  9994,2 54202  53.2139 266.2149 0003174  19.2636 340.8504 15.73203492  7827,6727.885,91.533,351.886,347.615,0.0
54202.0,STARLINK-5205,PAYLOAD,2022-12-15 04:38:21,15.73212488,0.000352,53.2134,265.5857,23.4648,336.6532,3.7304e-05,4.619e-05,0.0,0 STARLINK-5205,1 54202U 22141AX  22349.19330869  .00004619  00000-0  37304-4 0  9993,2 54202  53.2134 265.5857 0003520  23.4648 336.6532 15.73212488  7846,6727.86,91.532,352.093,347.356,0.0
54202.0,STARLINK-5205,PAYLOAD,2022-12-15 18:21:41,15.73191361,0.0003037,53.213,262.7557,15.9759,344.1357,-6.343600000000001e-06,-1.513e-05,0.0,0 STARLINK-5205,1 54202U 22141AX  22349.76506596 -.00001513  00000-0 -63436-5 0  9996,2 54202  53.2130 262.7557 0003037  15.9759 344.1357 15.73191361  7935,6727.92,91.534,351.82800000000015,347.742,0.0
54202.0,STARLINK-5205,PAYLOAD,2022-12-15 19:53:10,15.73197155,0.0002985,53.2133,262.4421,15.6943,344.4169,8.1255e-06,5.18e-06,0.0,0 STARLINK-5205,1 54202U 22141AX  22349.82859230  .00000518  00000-0  81255-5 0  9990,2 54202  53.2133 262.4421 0002985  15.6943 344.4169 15.73197155  7715,6727.903,91.533,351.777,347.76,0.0
54202.0,STARLINK-5205,PAYLOAD,2022-12-16 00:27:36,15.73213885,0.0003032,53.2131,261.4982,17.4184,342.694,4.6559e-05,5.921e-05,0.0,0 STARLINK-5205,1 54202U 22141AX  22350.01917130  .00005921  00000-0  46559-4 0  9997,2 54202  53.2131 261.4982 0003032  17.4184 342.6940 15.73213885  7979,6727.856,91.532,351.76,347.681,0.0
54202.0,STARLINK-5205,PAYLOAD,2022-12-16 11:07:57,15.73231036,0.00031,53.213,259.2972,19.7173,340.3966,8.1001e-05,0.00010777,0.0,0 STARLINK-5205,1 54202U 22141AX  22350.46385912  .00010777  00000-0  81001-4 0  9999,2 54202  53.2130 259.2972 0003100  19.7173 340.3966 15.73231036  7815,6727.807,91.531,351.75699999999995,347.586,0.0
54202.0,STARLINK-5205,PAYLOAD,2022-12-16 18:45:21,15.73209319,0.0002708,53.2134,257.7263,11.1017,349.0062,-6.1932e-07,-7.09e-06,0.0,0 STARLINK-5205,1 54202U 22141AX  22350.78150038 -.00000709  00000-0 -61932-6 0  9992,2 54202  53.2134 257.7263 0002708  11.1017 349.0062 15.73209319  8094,6727.869000000002,91.533,351.556,347.912,0.0
54202.0,STARLINK-5205,PAYLOAD,2022-12-17 03:54:16,15.731594199999998,0.0003081,53.2129,255.8402,16.6206,343.4914,-0.00012894,-0.00018652,0.0,0 STARLINK-5205,1 54202U 22141AX  22351.16268698 -.00018652  00000-0 -12894-3 0  9993,2 54202  53.2129 255.8402 0003081  16.6206 343.4914 15.73159420  8155,6728.011,91.536,351.949,347.80300000000005,0.0
54202.0,STARLINK-5205,PAYLOAD,2022-12-18 02:46:28,15.73219309,0.0002986,53.2131,251.1232,17.8745,342.23800000000006,0.00015195,0.00020777,0.0,0 STARLINK-5205,1 54202U 22141AX  22352.11560870  .00020777  00000-0  15195-3 0  9992,2 54202  53.2131 251.1232 0002986  17.8745 342.2380 15.73219309  8306,6727.84,91.532,351.714,347.696,0.0
54202.0,STARLINK-5205,PAYLOAD,2022-12-19 01:38:40,15.73206893,0.0002713,53.2134,246.4081,16.0443,344.0663,1.6698e-05,1.723e-05,0.0,0 STARLINK-5205,1 54202U 22141AX  22353.06851923  .00001723  00000-0  16698-4 0  9999,2 54202  53.2134 246.4081 0002713  16.0443 344.0663 15.73206893  8456,6727.876,91.533,351.566,347.915,0.0
54202.0,STARLINK-5205,PAYLOAD,2022-12-20 02:02:17,15.73270567,0.0002778,53.2138,241.3766,19.738,340.3747,9.303e-05,0.00012494,0.0,0 STARLINK-5205,1 54202U 22141AX  22354.08492597  .00012494  00000-0  93030-4 0  9992,2 54202  53.2138 241.3766 0002778  19.7380 340.3747 15.73270567  8614,6727.694,91.529,351.42800000000005,347.69,0.0
